[{"OBJECT_NAME":"STARLINK-5369","OBJECT_ID":"2022-177T","EPOCH":"2026-03-09T04:46:13.073088","MEAN_MOTION":15.02534269,"ECCENTRICITY":0.00011479,"INCLINATION":43.0015,"RA_OF_ASC_NODE":135.8119,"ARG_OF_PERICENTER":273.0142,"MEAN_ANOMALY":87.0569,"EPHEMERIS_TYPE":0,"CLASSIFICATION_TYPE":"U","NORAD_CAT_ID":54837,"ELEMENT_SET_NO":999,"REV_AT_EPOCH":17688,"BSTAR":3.3648485e-5,"MEAN_MOTION_DOT":2.51e-6,"MEAN_MOTION_DDOT":0},{"OBJECT_NAME":"PEGASUS DEB","OBJECT_ID":"1994-029LK","EPOCH":"2026-03-09T22:18:47.115072","MEAN_MOTION":14.54268919,"ECCENTRICITY":0.03111088,"INCLINATION":81.4299,"RA_OF_ASC_NODE":55.7262,"ARG_OF_PERICENTER":293.7836,"MEAN_ANOMALY":63.1023,"EPHEMERIS_TYPE":0,"CLASSIFICATION_TYPE":"U","NORAD_CAT_ID":24236,"ELEMENT_SET_NO":999,"REV_AT_EPOCH":52042,"BSTAR":0.0019719225,"MEAN_MOTION_DOT":0.00016098,"MEAN_MOTION_DDOT":0}]
